{"type": "FeatureCollection", "features": [ {"type": "Feature", "properties": {"norad_id": 66561, "name": "STARLINK-35305", "group": "last-30-days", "lat": -42.48785218921952, "lon": 82.75698720638563, "alt_km": 337.6478633172319, "timestamp": "2025-12-02T06:27:51.802129+00:00", "meta": {"OBJECT_NAME": "STARLINK-35305", "OBJECT_ID": "2025-268E", "EPOCH": "2025-12-01T20:00:01.999008", "MEAN_MOTION": 15.79682, "ECCENTRICITY": 0.0001705, "INCLINATION": 42.9965, "RA_OF_ASC_NODE": 185.9771, "ARG_OF_PERICENTER": 269.8424, "MEAN_ANOMALY": 31.1018, "EPHEMERIS_TYPE": 0, "CLASSIFICATION_TYPE": "U", "NORAD_CAT_ID": 66561, "ELEMENT_SET_NO": 999, "REV_AT_EPOCH": 286, "BSTAR": -0.0094331, "MEAN_MOTION_DOT": -0.01562678, "MEAN_MOTION_DDOT": 0}, "tle": {"line1": "1 66561U 25268E   25335.83335647 -.01562678  00000+0 -94331-2 0  9992", "line2": "2 66561  42.9965 185.9771 0001705 269.8424  31.1018 15.79682000  2865"}}, "geometry": {"type": "Point", "coordinates": [82.75698720638563, -42.48785218921952]}}, {"type": "Feature", "properties": {"norad_id": 66562, "name": "STARLINK-35579", "group": "last-30-days", "lat": -42.20945521915295, "lon": 80.10667665668238, "alt_km": 337.55155548102084, "timestamp": "2025-12-02T06:27:51.802139+00:00", "meta": {"OBJECT_NAME": "STARLINK-35579", "OBJECT_ID": "2025-268F", "EPOCH": "2025-12-01T20:00:01.999008", "MEAN_MOTION": 15.79685332, "ECCENTRICITY": 0.0001773, "INCLINATION": 42.9964, "RA_OF_ASC_NODE": 185.982, "ARG_OF_PERICENTER": 267.1294, "MEAN_ANOMALY": 31.817, "EPHEMERIS_TYPE": 0, "CLASSIFICATION_TYPE": "U", "NORAD_CAT_ID": 66562, "ELEMENT_SET_NO": 999, "REV_AT_EPOCH": 291, "BSTAR": -0.0093739, "MEAN_MOTION_DOT": -0.01554364, "MEAN_MOTION_DDOT": 0}, "tle": {"line1": "1 66562U 25268F   25335.83335647 -.01554364  00000+0 -93739-2 0  9997", "line2": "2 66562  42.9964 185.9820 0001773 267.1294  31.8170 15.79685332  2914"}}, "geometry": {"type": "Point", "coordinates": [80.10667665668238, -42.20945521915295]}}, {"type": "Feature", "properties": {"norad_id": 66563, "name": "STARLINK-35437", "group": "last-30-days", "lat": -42.711371664219236, "lon": 85.53290022077358, "alt_km": 337.76061856102115, "timestamp": "2025-12-02T06:27:51.802150+00:00", "meta": {"OBJECT_NAME": "STARLINK-35437", "OBJECT_ID": "2025-268G", "EPOCH": "2025-12-01T20:00:01.999008", "MEAN_MOTION": 15.79654673, "ECCENTRICITY": 0.0001655, "INCLINATION": 42.9963, "RA_OF_ASC_NODE": 185.9714, "ARG_OF_PERICENTER": 263.164, "MEAN_ANOMALY": 39.8871, "EPHEMERIS_TYPE": 0, "CLASSIFICATION_TYPE": "U", "NORAD_CAT_ID": 66563, "ELEMENT_SET_NO": 999, "REV_AT_EPOCH": 291, "BSTAR": -0.0094855, "MEAN_MOTION_DOT": -0.01568495, "MEAN_MOTION_DDOT": 0}, "tle": {"line1": "1 66563U 25268G   25335.83335647 -.01568495  00000+0 -94855-2 0  9998", "line2": "2 66563  42.9963 185.9714 0001655 263.1640  39.8871 15.79654673  2916"}}, "geometry": {"type": "Point", "coordinates": [85.53290022077358, -42.711371664219236]}}, {"type": "Feature", "properties": {"norad_id": 66564, "name": "STARLINK-35358", "group": "last-30-days", "lat": -42.86164181875891, "lon": 88.1968948516584, "alt_km": 337.72913217545374, "timestamp": "2025-12-02T06:27:51.802159+00:00", "meta": {"OBJECT_NAME": "STARLINK-35358", "OBJECT_ID": "2025-268H", "EPOCH": "2025-12-01T20:00:01.999008", "MEAN_MOTION": 15.79652841, "ECCENTRICITY": 0.0001757, "INCLINATION": 42.9963, "RA_OF_ASC_NODE": 185.9666, "ARG_OF_PERICENTER": 269.4495, "MEAN_ANOMALY": 35.5797, "EPHEMERIS_TYPE": 0, "CLASSIFICATION_TYPE": "U", "NORAD_CAT_ID": 66564, "ELEMENT_SET_NO": 999, "REV_AT_EPOCH": 286, "BSTAR": -0.009531, "MEAN_MOTION_DOT": -0.01575014, "MEAN_MOTION_DDOT": 0}, "tle": {"line1": "1 66564U 25268H   25335.83335647 -.01575014  00000+0 -95310-2 0  9991", "line2": "2 66564  42.9963 185.9666 0001757 269.4495  35.5797 15.79652841  2862"}}, "geometry": {"type": "Point", "coordinates": [88.1968948516584, -42.86164181875891]}}, {"type": "Feature", "properties": {"norad_id": 66565, "name": "STARLINK-35893", "group": "last-30-days", "lat": -42.95051698584193, "lon": 90.90643594932043, "alt_km": 337.79418792150227, "timestamp": "2025-12-02T06:27:51.802169+00:00", "meta": {"OBJECT_NAME": "STARLINK-35893", "OBJECT_ID": "2025-268J", "EPOCH": "2025-12-01T20:00:01.999008", "MEAN_MOTION": 15.79645352, "ECCENTRICITY": 0.0001721, "INCLINATION": 42.9964, "RA_OF_ASC_NODE": 185.9615, "ARG_OF_PERICENTER": 265.3055, "MEAN_ANOMALY": 41.7334, "EPHEMERIS_TYPE": 0, "CLASSIFICATION_TYPE": "U", "NORAD_CAT_ID": 66565, "ELEMENT_SET_NO": 999, "REV_AT_EPOCH": 291, "BSTAR": -0.0095928, "MEAN_MOTION_DOT": -0.01583408, "MEAN_MOTION_DDOT": 0}, "tle": {"line1": "1 66565U 25268J   25335.83335647 -.01583408  00000+0 -95928-2 0  9993", "line2": "2 66565  42.9964 185.9615 0001721 265.3055  41.7334 15.79645352  2917"}}, "geometry": {"type": "Point", "coordinates": [90.90643594932043, -42.95051698584193]}}, {"type": "Feature", "properties": {"norad_id": 66566, "name": "STARLINK-35871", "group": "last-30-days", "lat": -42.97432890557599, "lon": 93.8297743095512, "alt_km": 337.963084435014, "timestamp": "2025-12-02T06:27:51.802181+00:00", "meta": {"OBJECT_NAME": "STARLINK-35871", "OBJECT_ID": "2025-268K", "EPOCH": "2025-12-01T20:00:01.999008", "MEAN_MOTION": 15.79597652, "ECCENTRICITY": 0.0001725, "INCLINATION": 42.9965, "RA_OF_ASC_NODE": 185.956, "ARG_OF_PERICENTER": 265.5041, "MEAN_ANOMALY": 43.7658, "EPHEMERIS_TYPE": 0, "CLASSIFICATION_TYPE": "U", "NORAD_CAT_ID": 66566, "ELEMENT_SET_NO": 999, "REV_AT_EPOCH": 291, "BSTAR": -0.0096949, "MEAN_MOTION_DOT": -0.01595012, "MEAN_MOTION_DDOT": 0}, "tle": {"line1": "1 66566U 25268K   25335.83335647 -.01595012  00000+0 -96949-2 0  9992", "line2": "2 66566  42.9965 185.9560 0001725 265.5041  43.7658 15.79597652  2919"}}, "geometry": {"type": "Point", "coordinates": [93.8297743095512, -42.97432890557599]}}, {"type": "Feature", "properties": {"norad_id": 66567, "name": "STARLINK-35825", "group": "last-30-days", "lat": -42.926283833956354, "lon": 96.65787279779343, "alt_km": 338.0266794844629, "timestamp": "2025-12-02T06:27:51.802191+00:00", "meta": {"OBJECT_NAME": "STARLINK-35825", "OBJECT_ID": "2025-268L", "EPOCH": "2025-12-01T20:00:01.999008", "MEAN_MOTION": 15.79566396, "ECCENTRICITY": 0.0001797, "INCLINATION": 42.9966, "RA_OF_ASC_NODE": 185.9507, "ARG_OF_PERICENTER": 264.5944, "MEAN_ANOMALY": 46.8072, "EPHEMERIS_TYPE": 0, "CLASSIFICATION_TYPE": "U", "NORAD_CAT_ID": 66567, "ELEMENT_SET_NO": 999, "REV_AT_EPOCH": 291, "BSTAR": -0.0097592, "MEAN_MOTION_DOT": -0.01602257, "MEAN_MOTION_DDOT": 0}, "tle": {"line1": "1 66567U 25268L   25335.83335647 -.01602257  00000+0 -97592-2 0  9998", "line2": "2 66567  42.9966 185.9507 0001797 264.5944  46.8072 15.79566396  2917"}}, "geometry": {"type": "Point", "coordinates": [96.65787279779343, -42.926283833956354]}}, {"type": "Feature", "properties": {"norad_id": 66568, "name": "STARLINK-35803", "group": "last-30-days", "lat": -42.80565655631673, "lon": 99.52747270390623, "alt_km": 338.33110961586044, "timestamp": "2025-12-02T06:27:51.802200+00:00", "meta": {"OBJECT_NAME": "STARLINK-35803", "OBJECT_ID": "2025-268M", "EPOCH": "2025-12-01T20:00:01.999008", "MEAN_MOTION": 15.79524076, "ECCENTRICITY": 0.0001559, "INCLINATION": 42.9965, "RA_OF_ASC_NODE": 185.9452, "ARG_OF_PERICENTER": 267.4671, "MEAN_ANOMALY": 46.1235, "EPHEMERIS_TYPE": 0, "CLASSIFICATION_TYPE": "U", "NORAD_CAT_ID": 66568, "ELEMENT_SET_NO": 999, "REV_AT_EPOCH": 291, "BSTAR": -0.0098416, "MEAN_MOTION_DOT": -0.01611079, "MEAN_MOTION_DDOT": 0}, "tle": {"line1": "1 66568U 25268M   25335.83335647 -.01611079  00000+0 -98416-2 0  9997", "line2": "2 66568  42.9965 185.9452 0001559 267.4671  46.1235 15.79524076  2914"}}, "geometry": {"type": "Point", "coordinates": [99.52747270390623, -42.80565655631673]}}, {"type": "Feature", "properties": {"norad_id": 66569, "name": "STARLINK-35835", "group": "last-30-days", "lat": -42.625702219087195, "lon": 102.23051572881081, "alt_km": 338.3232074476, "timestamp": "2025-12-02T06:27:51.802210+00:00", "meta": {"OBJECT_NAME": "STARLINK-35835", "OBJECT_ID": "2025-268N", "EPOCH": "2025-12-01T20:00:01.999008", "MEAN_MOTION": 15.79509227, "ECCENTRICITY": 0.000165, "INCLINATION": 42.9966, "RA_OF_ASC_NODE": 185.94, "ARG_OF_PERICENTER": 268.92, "MEAN_ANOMALY": 46.7004, "EPHEMERIS_TYPE": 0, "CLASSIFICATION_TYPE": "U", "NORAD_CAT_ID": 66569, "ELEMENT_SET_NO": 999, "REV_AT_EPOCH": 291, "BSTAR": -0.0098936, "MEAN_MOTION_DOT": -0.01617568, "MEAN_MOTION_DDOT": 0}, "tle": {"line1": "1 66569U 25268N   25335.83335647 -.01617568  00000+0 -98936-2 0  9994", "line2": "2 66569  42.9966 185.9400 0001650 268.9200  46.7004 15.79509227  2916"}}, "geometry": {"type": "Point", "coordinates": [102.23051572881081, -42.625702219087195]}}, {"type": "Feature", "properties": {"norad_id": 66570, "name": "STARLINK-35834", "group": "last-30-days", "lat": -42.36777074856859, "lon": 105.05664063530419, "alt_km": 338.4271466709133, "timestamp": "2025-12-02T06:27:51.802222+00:00", "meta": {"OBJECT_NAME": "STARLINK-35834", "OBJECT_ID": "2025-268P", "EPOCH": "2025-12-01T20:00:01.999008", "MEAN_MOTION": 15.79465683, "ECCENTRICITY": 0.0001702, "INCLINATION": 42.9967, "RA_OF_ASC_NODE": 185.9346, "ARG_OF_PERICENTER": 271.728, "MEAN_ANOMALY": 46.0763, "EPHEMERIS_TYPE": 0, "CLASSIFICATION_TYPE": "U", "NORAD_CAT_ID": 66570, "ELEMENT_SET_NO": 999, "REV_AT_EPOCH": 291, "BSTAR": -0.00998, "MEAN_MOTION_DOT": -0.01627023, "MEAN_MOTION_DDOT": 0}, "tle": {"line1": "1 66570U 25268P   25335.83335647 -.01627023  00000+0 -99800-2 0  9994", "line2": "2 66570  42.9967 185.9346 0001702 271.7280  46.0763 15.79465683  2918"}}, "geometry": {"type": "Point", "coordinates": [105.05664063530419, -42.36777074856859]}}]}